{"type": "FeatureCollection", "features": [ {"type": "Feature", "properties": {"norad_id": 40938, "name": "BEIDOU-3S IGSO-2S (C56)", "group": "gnss", "lat": -11.85265831370838, "lon": -109.39903569168453, "alt_km": 36022.46288001783, "timestamp": "2025-12-21T03:56:51.082636+00:00", "meta": {"OBJECT_NAME": "BEIDOU-3S IGSO-2S (C56)", "OBJECT_ID": "2015-053A", "EPOCH": "2025-12-20T17:06:26.975808", "MEAN_MOTION": 1.00268356, "ECCENTRICITY": 0.0060565, "INCLINATION": 49.4983, "RA_OF_ASC_NODE": 260.9119, "ARG_OF_PERICENTER": 188.6737, "MEAN_ANOMALY": 352.4367, "EPHEMERIS_TYPE": 0, "CLASSIFICATION_TYPE": "U", "NORAD_CAT_ID": 40938, "ELEMENT_SET_NO": 999, "REV_AT_EPOCH": 3756, "BSTAR": 0, "MEAN_MOTION_DOT": -1.06e-06, "MEAN_MOTION_DDOT": 0}, "tle": {"line1": "1 40938U 15053A   25354.71281222 -.00000106  00000+0  00000+0 0  9998", "line2": "2 40938  49.4983 260.9119 0060565 188.6737 352.4367  1.00268356 37565"}}, "geometry": {"type": "Point", "coordinates": [-109.39903569168453, -11.85265831370838]}}, {"type": "Feature", "properties": {"norad_id": 41019, "name": "GPS BIIF-11 (PRN 10)", "group": "gnss", "lat": -56.76328229390868, "lon": -48.006090456870304, "alt_km": 19967.308107760164, "timestamp": "2025-12-21T03:56:51.082647+00:00", "meta": {"OBJECT_NAME": "GPS BIIF-11 (PRN 10)", "OBJECT_ID": "2015-062A", "EPOCH": "2025-12-20T06:55:31.863072", "MEAN_MOTION": 2.00567218, "ECCENTRICITY": 0.0111019, "INCLINATION": 56.8376, "RA_OF_ASC_NODE": 37.7103, "ARG_OF_PERICENTER": 230.1421, "MEAN_ANOMALY": 128.9419, "EPHEMERIS_TYPE": 0, "CLASSIFICATION_TYPE": "U", "NORAD_CAT_ID": 41019, "ELEMENT_SET_NO": 999, "REV_AT_EPOCH": 7424, "BSTAR": 0, "MEAN_MOTION_DOT": -5.7e-07, "MEAN_MOTION_DDOT": 0}, "tle": {"line1": "1 41019U 15062A   25354.28856323 -.00000057  00000+0  00000+0 0  9996", "line2": "2 41019  56.8376  37.7103 0111019 230.1421 128.9419  2.00567218 74241"}}, "geometry": {"type": "Point", "coordinates": [-48.006090456870304, -56.76328229390868]}}, {"type": "Feature", "properties": {"norad_id": 41028, "name": "GSAT-15 (GAGAN/PRN 139)", "group": "gnss", "lat": -0.027902814220947494, "lon": -117.30046918597846, "alt_km": 35775.87880186553, "timestamp": "2025-12-21T03:56:51.082658+00:00", "meta": {"OBJECT_NAME": "GSAT-15 (GAGAN/PRN 139)", "OBJECT_ID": "2015-065A", "EPOCH": "2025-12-20T20:03:57.660192", "MEAN_MOTION": 1.00273228, "ECCENTRICITY": 0.0002344, "INCLINATION": 0.0288, "RA_OF_ASC_NODE": 272.3932, "ARG_OF_PERICENTER": 323.3142, "MEAN_ANOMALY": 248.4499, "EPHEMERIS_TYPE": 0, "CLASSIFICATION_TYPE": "U", "NORAD_CAT_ID": 41028, "ELEMENT_SET_NO": 999, "REV_AT_EPOCH": 3701, "BSTAR": 0, "MEAN_MOTION_DOT": -2.35e-06, "MEAN_MOTION_DDOT": 0}, "tle": {"line1": "1 41028U 15065A   25354.83608403 -.00000235  00000+0  00000+0 0  9992", "line2": "2 41028   0.0288 272.3932 0002344 323.3142 248.4499  1.00273228 37010"}}, "geometry": {"type": "Point", "coordinates": [-117.30046918597846, -0.027902814220947494]}}, {"type": "Feature", "properties": {"norad_id": 41174, "name": "GSAT0209 (GALILEO 12)", "group": "gnss", "lat": -55.48799478471458, "lon": 23.981379941787065, "alt_km": 23225.82943662042, "timestamp": "2025-12-21T03:56:51.082668+00:00", "meta": {"OBJECT_NAME": "GSAT0209 (GALILEO 12)", "OBJECT_ID": "2015-079A", "EPOCH": "2025-12-20T17:12:54.927360", "MEAN_MOTION": 1.70474584, "ECCENTRICITY": 0.0002426, "INCLINATION": 55.7172, "RA_OF_ASC_NODE": 106.1622, "ARG_OF_PERICENTER": 346.435, "MEAN_ANOMALY": 13.5264, "EPHEMERIS_TYPE": 0, "CLASSIFICATION_TYPE": "U", "NORAD_CAT_ID": 41174, "ELEMENT_SET_NO": 999, "REV_AT_EPOCH": 6173, "BSTAR": 0, "MEAN_MOTION_DOT": 0, "MEAN_MOTION_DDOT": 0}, "tle": {"line1": "1 41174U 15079A   25354.71730240  .00000000  00000+0  00000+0 0  9990", "line2": "2 41174  55.7172 106.1622 0002426 346.4350  13.5264  1.70474584 61731"}}, "geometry": {"type": "Point", "coordinates": [23.981379941787065, -55.48799478471458]}}, {"type": "Feature", "properties": {"norad_id": 41175, "name": "GSAT0208 (GALILEO 11)", "group": "gnss", "lat": 32.55613796844331, "lon": -99.6373325345612, "alt_km": 23222.29635102398, "timestamp": "2025-12-21T03:56:51.082678+00:00", "meta": {"OBJECT_NAME": "GSAT0208 (GALILEO 11)", "OBJECT_ID": "2015-079B", "EPOCH": "2025-12-20T08:25:16.296384", "MEAN_MOTION": 1.70474393, "ECCENTRICITY": 0.00018076, "INCLINATION": 55.7157, "RA_OF_ASC_NODE": 106.1693, "ARG_OF_PERICENTER": 359.1842, "MEAN_ANOMALY": 0.7815, "EPHEMERIS_TYPE": 0, "CLASSIFICATION_TYPE": "U", "NORAD_CAT_ID": 41175, "ELEMENT_SET_NO": 999, "REV_AT_EPOCH": 6214, "BSTAR": 0, "MEAN_MOTION_DOT": -2e-08, "MEAN_MOTION_DDOT": 0}, "tle": {"line1": "1 41175U 15079B   25354.35088306 -.00000002  00000+0  00000+0 0  9993", "line2": "2 41175  55.7157 106.1693 0001807 359.1842   0.7815  1.70474393 62146"}}, "geometry": {"type": "Point", "coordinates": [-99.6373325345612, 32.55613796844331]}}, {"type": "Feature", "properties": {"norad_id": 41241, "name": "IRNSS-1E", "group": "gnss", "lat": -9.992997416909846, "lon": -101.82506671546194, "alt_km": 35697.97584986185, "timestamp": "2025-12-21T03:56:51.082690+00:00", "meta": {"OBJECT_NAME": "IRNSS-1E", "OBJECT_ID": "2016-003A", "EPOCH": "2025-12-20T14:57:09.230400", "MEAN_MOTION": 1.00270447, "ECCENTRICITY": 0.0021619, "INCLINATION": 32.8427, "RA_OF_ASC_NODE": 62.3382, "ARG_OF_PERICENTER": 188.6599, "MEAN_ANOMALY": 174.4859, "EPHEMERIS_TYPE": 0, "CLASSIFICATION_TYPE": "U", "NORAD_CAT_ID": 41241, "ELEMENT_SET_NO": 999, "REV_AT_EPOCH": 3629, "BSTAR": 0, "MEAN_MOTION_DOT": -3e-06, "MEAN_MOTION_DDOT": 0}, "tle": {"line1": "1 41241U 16003A   25354.62302350 -.00000300  00000+0  00000+0 0  9994", "line2": "2 41241  32.8427  62.3382 0021619 188.6599 174.4859  1.00270447 36292"}}, "geometry": {"type": "Point", "coordinates": [-101.82506671546194, -9.992997416909846]}}, {"type": "Feature", "properties": {"norad_id": 41328, "name": "GPS BIIF-12 (PRN 32)", "group": "gnss", "lat": -25.308227815827276, "lon": -64.46120143502625, "alt_km": 19977.904032384853, "timestamp": "2025-12-21T03:56:51.082700+00:00", "meta": {"OBJECT_NAME": "GPS BIIF-12 (PRN 32)", "OBJECT_ID": "2016-007A", "EPOCH": "2025-12-20T08:54:35.720928", "MEAN_MOTION": 2.00560411, "ECCENTRICITY": 0.00925423, "INCLINATION": 55.4103, "RA_OF_ASC_NODE": 96.5541, "ARG_OF_PERICENTER": 243.7653, "MEAN_ANOMALY": 115.2741, "EPHEMERIS_TYPE": 0, "CLASSIFICATION_TYPE": "U", "NORAD_CAT_ID": 41328, "ELEMENT_SET_NO": 999, "REV_AT_EPOCH": 7225, "BSTAR": 0, "MEAN_MOTION_DOT": -1.8e-07, "MEAN_MOTION_DDOT": 0}, "tle": {"line1": "1 41328U 16007A   25354.37124677 -.00000018  00000+0  00000+0 0  9996", "line2": "2 41328  55.4103  96.5541 0092542 243.7653 115.2741  2.00560411 72256"}}, "geometry": {"type": "Point", "coordinates": [-64.46120143502625, -25.308227815827276]}}, {"type": "Feature", "properties": {"norad_id": 41330, "name": "COSMOS 2514 (751)", "group": "gnss", "lat": 25.259270593006438, "lon": 126.46256883822933, "alt_km": 19115.918166627212, "timestamp": "2025-12-21T03:56:51.082711+00:00", "meta": {"OBJECT_NAME": "COSMOS 2514 (751)", "OBJECT_ID": "2016-008A", "EPOCH": "2025-12-20T11:55:37.204032", "MEAN_MOTION": 2.13102667, "ECCENTRICITY": 0.0011761, "INCLINATION": 65.1293, "RA_OF_ASC_NODE": 319.1384, "ARG_OF_PERICENTER": 220.1375, "MEAN_ANOMALY": 139.7678, "EPHEMERIS_TYPE": 0, "CLASSIFICATION_TYPE": "U", "NORAD_CAT_ID": 41330, "ELEMENT_SET_NO": 999, "REV_AT_EPOCH": 7681, "BSTAR": 0, "MEAN_MOTION_DOT": -5.2e-07, "MEAN_MOTION_DDOT": 0}, "tle": {"line1": "1 41330U 16008A   25354.49695838 -.00000052  00000+0  00000+0 0  9993", "line2": "2 41330  65.1293 319.1384 0011761 220.1375 139.7678  2.13102667 76815"}}, "geometry": {"type": "Point", "coordinates": [126.46256883822933, 25.259270593006438]}}, {"type": "Feature", "properties": {"norad_id": 41384, "name": "IRNSS-1F", "group": "gnss", "lat": 4.835557502258686, "lon": -178.64341279756735, "alt_km": 35802.461070751204, "timestamp": "2025-12-21T03:56:51.082721+00:00", "meta": {"OBJECT_NAME": "IRNSS-1F", "OBJECT_ID": "2016-015A", "EPOCH": "2025-12-19T23:41:22.009056", "MEAN_MOTION": 1.00276206, "ECCENTRICITY": 0.00226432, "INCLINATION": 4.8991, "RA_OF_ASC_NODE": 101.1179, "ARG_OF_PERICENTER": 181.5741, "MEAN_ANOMALY": 193.9029, "EPHEMERIS_TYPE": 0, "CLASSIFICATION_TYPE": "U", "NORAD_CAT_ID": 41384, "ELEMENT_SET_NO": 999, "REV_AT_EPOCH": 3587, "BSTAR": 0, "MEAN_MOTION_DOT": 1.78e-06, "MEAN_MOTION_DDOT": 0}, "tle": {"line1": "1 41384U 16015A   25353.98706029  .00000178  00000+0  00000+0 0  9996", "line2": "2 41384   4.8991 101.1179 0022643 181.5741 193.9029  1.00276206 35877"}}, "geometry": {"type": "Point", "coordinates": [-178.64341279756735, 4.835557502258686]}}, {"type": "Feature", "properties": {"norad_id": 41434, "name": "BEIDOU-2 IGSO-6 (C13)", "group": "gnss", "lat": -19.29481890033616, "lon": -128.47411837727014, "alt_km": 35555.0065066925, "timestamp": "2025-12-21T03:56:51.082732+00:00", "meta": {"OBJECT_NAME": "BEIDOU-2 IGSO-6 (C13)", "OBJECT_ID": "2016-021A", "EPOCH": "2025-12-18T14:33:38.837664", "MEAN_MOTION": 1.00292299, "ECCENTRICITY": 0.00610054, "INCLINATION": 59.9732, "RA_OF_ASC_NODE": 39.8392, "ARG_OF_PERICENTER": 230.2031, "MEAN_ANOMALY": 129.1398, "EPHEMERIS_TYPE": 0, "CLASSIFICATION_TYPE": "U", "NORAD_CAT_ID": 41434, "ELEMENT_SET_NO": 999, "REV_AT_EPOCH": 3566, "BSTAR": 0, "MEAN_MOTION_DOT": -1.41e-06, "MEAN_MOTION_DDOT": 0}, "tle": {"line1": "1 41434U 16021A   25352.60669951 -.00000141  00000+0  00000+0 0  9990", "line2": "2 41434  59.9732  39.8392 0061005 230.2031 129.1398  1.00292299 35667"}}, "geometry": {"type": "Point", "coordinates": [-128.47411837727014, -19.29481890033616]}}]}